CCSDS_OMM_VERS = 2.0
CREATION_DATE  = 
ORIGINATOR     = 

OBJECT_NAME    = ALOS (DAICHI)
OBJECT_ID      = 2006-002A
CENTER_NAME    = EARTH
REF_FRAME      = TEME
TIME_SYSTEM    = UTC
MEAN_ELEMENT_THEORY = SGP/SGP4

EPOCH          = 2026-02-09T20:42:27.050976
MEAN_MOTION    = 14.69716891
ECCENTRICITY   = .00019622
INCLINATION    = 98.1170
RA_OF_ASC_NODE = 356.9689
ARG_OF_PERICENTER = 64.1254
MEAN_ANOMALY   = 296.0154

EPHEMERIS_TYPE = 0
CLASSIFICATION_TYPE = U
NORAD_CAT_ID   = 28931
ELEMENT_SET_NO = 999
REV_AT_EPOCH   = 6939
BSTAR          = .30100003E-3
MEAN_MOTION_DOT = .1744E-4
MEAN_MOTION_DDOT = 0

CCSDS_OMM_VERS = 2.0
CREATION_DATE  = 
ORIGINATOR     = 

OBJECT_NAME    = H-2A R/B
OBJECT_ID      = 2006-002B
CENTER_NAME    = EARTH
REF_FRAME      = TEME
TIME_SYSTEM    = UTC
MEAN_ELEMENT_THEORY = SGP/SGP4

EPOCH          = 2026-02-09T22:55:54.119136
MEAN_MOTION    = 15.15856900
ECCENTRICITY   = .0052752
INCLINATION    = 98.2360
RA_OF_ASC_NODE = 185.6171
ARG_OF_PERICENTER = 336.6910
MEAN_ANOMALY   = 23.1929

EPHEMERIS_TYPE = 0
CLASSIFICATION_TYPE = U
NORAD_CAT_ID   = 28932
ELEMENT_SET_NO = 999
REV_AT_EPOCH   = 9023
BSTAR          = .4531E-3
MEAN_MOTION_DOT = .8901E-4
MEAN_MOTION_DDOT = 0

CCSDS_OMM_VERS = 2.0
CREATION_DATE  = 
ORIGINATOR     = 

OBJECT_NAME    = RESURS-DK 1
OBJECT_ID      = 2006-021A
CENTER_NAME    = EARTH
REF_FRAME      = TEME
TIME_SYSTEM    = UTC
MEAN_ELEMENT_THEORY = SGP/SGP4

EPOCH          = 2026-02-10T03:48:18.700128
MEAN_MOTION    = 15.12584166
ECCENTRICITY   = .00044738
INCLINATION    = 69.9346
RA_OF_ASC_NODE = 308.2307
ARG_OF_PERICENTER = 203.4349
MEAN_ANOMALY   = 156.6614

EPHEMERIS_TYPE = 0
CLASSIFICATION_TYPE = U
NORAD_CAT_ID   = 29228
ELEMENT_SET_NO = 999
REV_AT_EPOCH   = 8336
BSTAR          = .18140509E-3
MEAN_MOTION_DOT = .3067E-4
MEAN_MOTION_DDOT = 0

CCSDS_OMM_VERS = 2.0
CREATION_DATE  = 
ORIGINATOR     = 

OBJECT_NAME    = CZ-4B R/B
OBJECT_ID      = 2006-046C
CENTER_NAME    = EARTH
REF_FRAME      = TEME
TIME_SYSTEM    = UTC
MEAN_ELEMENT_THEORY = SGP/SGP4

EPOCH          = 2026-02-10T02:22:15.106080
MEAN_MOTION    = 15.16604377
ECCENTRICITY   = .00335368
INCLINATION    = 97.5652
RA_OF_ASC_NODE = 86.0798
ARG_OF_PERICENTER = 6.1089
MEAN_ANOMALY   = 354.0546

EPHEMERIS_TYPE = 0
CLASSIFICATION_TYPE = U
NORAD_CAT_ID   = 29507
ELEMENT_SET_NO = 999
REV_AT_EPOCH   = 5586
BSTAR          = .24235169E-3
MEAN_MOTION_DOT = .4732E-4
MEAN_MOTION_DDOT = 0

CCSDS_OMM_VERS = 2.0
CREATION_DATE  = 
ORIGINATOR     = 

OBJECT_NAME    = CZ-2C R/B
OBJECT_ID      = 2007-010B
CENTER_NAME    = EARTH
REF_FRAME      = TEME
TIME_SYSTEM    = UTC
MEAN_ELEMENT_THEORY = SGP/SGP4

EPOCH          = 2026-02-10T06:00:25.183872
MEAN_MOTION    = 14.20236569
ECCENTRICITY   = .00592059
INCLINATION    = 98.3970
RA_OF_ASC_NODE = 155.9069
ARG_OF_PERICENTER = 15.1338
MEAN_ANOMALY   = 345.1594

EPHEMERIS_TYPE = 0
CLASSIFICATION_TYPE = U
NORAD_CAT_ID   = 31114
ELEMENT_SET_NO = 999
REV_AT_EPOCH   = 97582
BSTAR          = .76594608E-4
MEAN_MOTION_DOT = .125E-5
MEAN_MOTION_DDOT = 0

CCSDS_OMM_VERS = 2.0
CREATION_DATE  = 
ORIGINATOR     = 

OBJECT_NAME    = COSMO-SKYMED 1
OBJECT_ID      = 2007-023A
CENTER_NAME    = EARTH
REF_FRAME      = TEME
TIME_SYSTEM    = UTC
MEAN_ELEMENT_THEORY = SGP/SGP4

EPOCH          = 2026-02-10T05:58:17.132160
MEAN_MOTION    = 14.96313815
ECCENTRICITY   = .00008484
INCLINATION    = 97.8858
RA_OF_ASC_NODE = 232.0658
ARG_OF_PERICENTER = 82.8077
MEAN_ANOMALY   = 277.3240

EPHEMERIS_TYPE = 0
CLASSIFICATION_TYPE = U
NORAD_CAT_ID   = 31598
ELEMENT_SET_NO = 999
REV_AT_EPOCH   = 1080
BSTAR          = .32539536E-3
MEAN_MOTION_DOT = .362E-4
MEAN_MOTION_DDOT = 0

CCSDS_OMM_VERS = 2.0
CREATION_DATE  = 
ORIGINATOR     = 

OBJECT_NAME    = COSMOS 2428
OBJECT_ID      = 2007-029A
CENTER_NAME    = EARTH
REF_FRAME      = TEME
TIME_SYSTEM    = UTC
MEAN_ELEMENT_THEORY = SGP/SGP4

EPOCH          = 2026-02-10T01:35:15.763488
MEAN_MOTION    = 14.12933801
ECCENTRICITY   = .00074093
INCLINATION    = 70.9396
RA_OF_ASC_NODE = 261.3294
ARG_OF_PERICENTER = 307.4625
MEAN_ANOMALY   = 52.5822

EPHEMERIS_TYPE = 0
CLASSIFICATION_TYPE = U
NORAD_CAT_ID   = 31792
ELEMENT_SET_NO = 999
REV_AT_EPOCH   = 96019
BSTAR          = .19290575E-3
MEAN_MOTION_DOT = .312E-5
MEAN_MOTION_DDOT = 0

CCSDS_OMM_VERS = 2.0
CREATION_DATE  = 
ORIGINATOR     = 

OBJECT_NAME    = SL-16 R/B
OBJECT_ID      = 2007-029B
CENTER_NAME    = EARTH
REF_FRAME      = TEME
TIME_SYSTEM    = UTC
MEAN_ELEMENT_THEORY = SGP/SGP4

EPOCH          = 2026-02-10T00:16:14.503872
MEAN_MOTION    = 14.14833072
ECCENTRICITY   = .00019996
INCLINATION    = 70.9736
RA_OF_ASC_NODE = 230.5649
ARG_OF_PERICENTER = 278.3789
MEAN_ANOMALY   = 248.9040

EPHEMERIS_TYPE = 0
CLASSIFICATION_TYPE = U
NORAD_CAT_ID   = 31793
ELEMENT_SET_NO = 999
REV_AT_EPOCH   = 96145
BSTAR          = .22068246E-3
MEAN_MOTION_DOT = .378E-5
MEAN_MOTION_DDOT = 0

CCSDS_OMM_VERS = 2.0
CREATION_DATE  = 
ORIGINATOR     = 

OBJECT_NAME    = KORONAS-FOTON
OBJECT_ID      = 2009-003A
CENTER_NAME    = EARTH
REF_FRAME      = TEME
TIME_SYSTEM    = UTC
MEAN_ELEMENT_THEORY = SGP/SGP4

EPOCH          = 2026-02-10T04:50:32.948736
MEAN_MOTION    = 15.42590171
ECCENTRICITY   = .00089297
INCLINATION    = 82.4313
RA_OF_ASC_NODE = 304.4375
ARG_OF_PERICENTER = 255.3896
MEAN_ANOMALY   = 104.6361

EPHEMERIS_TYPE = 0
CLASSIFICATION_TYPE = U
NORAD_CAT_ID   = 33504
ELEMENT_SET_NO = 999
REV_AT_EPOCH   = 94150
BSTAR          = .26437072E-3
MEAN_MOTION_DOT = .11544E-3
MEAN_MOTION_DDOT = 0

CCSDS_OMM_VERS = 2.0
CREATION_DATE  = 
ORIGINATOR     = 

OBJECT_NAME    = CZ-2C R/B
OBJECT_ID      = 2011-030B
CENTER_NAME    = EARTH
REF_FRAME      = TEME
TIME_SYSTEM    = UTC
MEAN_ELEMENT_THEORY = SGP/SGP4

EPOCH          = 2026-02-09T20:16:56.334144
MEAN_MOTION    = 14.81113393
ECCENTRICITY   = .00542324
INCLINATION    = 97.8495
RA_OF_ASC_NODE = 358.6783
ARG_OF_PERICENTER = 81.1633
MEAN_ANOMALY   = 332.4301

EPHEMERIS_TYPE = 0
CLASSIFICATION_TYPE = U
NORAD_CAT_ID   = 37731
ELEMENT_SET_NO = 999
REV_AT_EPOCH   = 78597
BSTAR          = .22943942E-3
MEAN_MOTION_DOT = .1773E-4
MEAN_MOTION_DDOT = 0

CCSDS_OMM_VERS = 2.0
CREATION_DATE  = 
ORIGINATOR     = 

OBJECT_NAME    = H-2A R/B
OBJECT_ID      = 2012-025E
CENTER_NAME    = EARTH
REF_FRAME      = TEME
TIME_SYSTEM    = UTC
MEAN_ELEMENT_THEORY = SGP/SGP4

EPOCH          = 2026-02-10T06:54:43.783200
MEAN_MOTION    = 14.94922062
ECCENTRICITY   = .0045676
INCLINATION    = 98.4676
RA_OF_ASC_NODE = 6.1578
ARG_OF_PERICENTER = 43.6209
MEAN_ANOMALY   = 316.8606

EPHEMERIS_TYPE = 0
CLASSIFICATION_TYPE = U
NORAD_CAT_ID   = 38341
ELEMENT_SET_NO = 999
REV_AT_EPOCH   = 74412
BSTAR          = .35288263E-3
MEAN_MOTION_DOT = .3862E-4
MEAN_MOTION_DDOT = 0

CCSDS_OMM_VERS = 2.0
CREATION_DATE  = 
ORIGINATOR     = 

OBJECT_NAME    = SHIJIAN-16 (SJ-16)
OBJECT_ID      = 2013-057A
CENTER_NAME    = EARTH
REF_FRAME      = TEME
TIME_SYSTEM    = UTC
MEAN_ELEMENT_THEORY = SGP/SGP4

EPOCH          = 2026-02-10T05:00:54.198432
MEAN_MOTION    = 14.92241411
ECCENTRICITY   = .0016771
INCLINATION    = 74.9706
RA_OF_ASC_NODE = 237.1083
ARG_OF_PERICENTER = 181.2149
MEAN_ANOMALY   = 178.9002

EPHEMERIS_TYPE = 0
CLASSIFICATION_TYPE = U
NORAD_CAT_ID   = 39358
ELEMENT_SET_NO = 999
REV_AT_EPOCH   = 66740
BSTAR          = .80996335E-4
MEAN_MOTION_DOT = .799E-5
MEAN_MOTION_DDOT = 0

