ALOS (DAICHI)           
1 28931U 06002A   26040.86281309  .00001744  00000+0  30100-3 0  9992
2 28931  98.1170 356.9689 0001962  64.1254 296.0154 14.69716891 69393
H-2A R/B                
1 28932U 06002B   26040.95548749  .00008901  00000+0  45310-3 0  9998
2 28932  98.2360 185.6171 0052752 336.6910  23.1929 15.15856900 90232
RESURS-DK 1             
1 29228U 06021A   26041.15854977  .00003067  00000+0  18141-3 0  9994
2 29228  69.9346 308.2307 0004473 203.4349 156.6614 15.12584166 83366
CZ-4B R/B               
1 29507U 06046C   26041.09878595  .00004732  00000+0  24235-3 0  9997
2 29507  97.5652  86.0798 0033536   6.1089 354.0546 15.16604377 55862
CZ-2C R/B               
1 31114U 07010B   26041.25029148  .00000125  00000+0  76595-4 0  9995
2 31114  98.3970 155.9069 0059205  15.1338 345.1594 14.20236569975825
COSMO-SKYMED 1          
1 31598U 07023A   26041.24880940  .00003620  00000+0  32540-3 0  9993
2 31598  97.8858 232.0658 0000848  82.8077 277.3240 14.96313815 10806
COSMOS 2428             
1 31792U 07029A   26041.06615467  .00000312  00000+0  19291-3 0  9998
2 31792  70.9396 261.3294 0007409 307.4625  52.5822 14.12933801960193
SL-16 R/B               
1 31793U 07029B   26041.01127898  .00000378  00000+0  22068-3 0  9998
2 31793  70.9736 230.5649 0001999 278.3789 248.9040 14.14833072961453
KORONAS-FOTON           
1 33504U 09003A   26041.20177024  .00011544  00000+0  26437-3 0  9992
2 33504  82.4313 304.4375 0008929 255.3896 104.6361 15.42590171941505
CZ-2C R/B               
1 37731U 11030B   26040.84509646  .00001773  00000+0  22944-3 0  9991
2 37731  97.8495 358.6783 0054232  81.1633 332.4301 14.81113393785979
H-2A R/B                
1 38341U 12025E   26041.28800675  .00003862  00000+0  35288-3 0  9995
2 38341  98.4676   6.1578 0045676  43.6209 316.8606 14.94922062744127
SHIJIAN-16 (SJ-16)      
1 39358U 13057A   26041.20896063  .00000799  00000+0  80996-4 0  9991
2 39358  74.9706 237.1083 0016771 181.2149 178.9002 14.92241411667404
